OTTER                   
1 62623U 25009Q   26068.72300813  .00012198  00000+0  45151-3 0  9990
2 62623  97.4065 151.3812 0003573 310.7710  49.3219 15.27809545 63722
STARLINK-33954          
1 63863U 25093AD  26068.06526560  .00039523  00000+0  14370-2 0  9995
2 63863  42.9998  81.6660 0001545 282.4069  77.6609 15.27604832 47657
